*******************************************************************************
JPL/HORIZONS                465 Alekto (A901 AC)           2020-Jun-22 09:09:05
Rec #:     465 (+COV) Soln.date: 2020-May-20_01:06:12   # obs: 4263 (1901-2020)
 
IAU76/J2000 helio. ecliptic osc. elements (au, days, deg., period=Julian yrs):
 
  EPOCH=  2455582.5 ! 2011-Jan-21.00 (TDB)         Residual RMS= .30548
   EC= .2098709975828733   QR= 2.44165998229921    TP= 2455574.0077737747
   OM= 300.6839152955095   W=  284.3796571668468   IN= 4.655909902141998
   A= 3.090204225929936    MA= 1.540794982795653   ADIST= 3.738748469560663
   PER= 5.43237            N= .181435927           ANGMOM= .029566068
   DAN= 2.80775            DDN= 3.11653            L= 225.109207
   B= -4.5097397           MOID= 1.43896997        TP= 2011-Jan-12.5077737747
 
Asteroid physical parameters (km, seconds, rotational period in hours):
   GM= n.a.                RAD= 36.67              ROTPER= 10.936
   H= 9.8                  G= .150                 B-V= n.a.
                           ALBEDO= .0433           STYP= n.a.
 
ASTEROID comments: 
1: soln ref.= JPL#48, OCC=0
2: source=ORB
*******************************************************************************
 
 
*******************************************************************************
Ephemeris / WWW_USER Mon Jun 22 09:09:05 2020 Pasadena, USA      / Horizons
*******************************************************************************
Target body name: 465 Alekto (A901 AC)            {source: JPL#48}
Center body name: Solar System Barycenter (0)     {source: DE431}
Center-site name: BODY CENTER
*******************************************************************************
Start time      : A.D. 1969-Jun-28 00:00:00.0000 TDB
Stop  time      : A.D. 2071-May-04 00:00:00.0000 TDB
Step-size       : 7200 minutes
*******************************************************************************
Center geodetic : 0.00000000,0.00000000,0.0000000 {E-lon(deg),Lat(deg),Alt(km)}
Center cylindric: 0.00000000,0.00000000,0.0000000 {E-lon(deg),Dxy(km),Dz(km)}
Center radii    : (undefined)                                                  
Small perturbers: Yes                             {source: SB431-N16}
Output units    : AU-D
Output type     : GEOMETRIC cartesian states
Output format   : 2 (position and velocity)
Reference frame : Ecliptic of J2000.0
*******************************************************************************
Initial IAU76/J2000 heliocentric ecliptic osculating elements (au, days, deg.):
  EPOCH=  2455582.5 ! 2011-Jan-21.00 (TDB)         Residual RMS= .30548        
   EC= .2098709975828733   QR= 2.44165998229921    TP= 2455574.0077737747      
   OM= 300.6839152955095   W=  284.3796571668468   IN= 4.655909902141998       
  Equivalent ICRF heliocentric equatorial cartesian coordinates (au, au/d):
   X=-1.643922719645651E+00  Y=-1.572164722388986E+00  Z=-8.884558147229317E-01
  VX= 8.853493263157659E-03 VY=-7.683160695655163E-03 VZ=-3.029087862070287E-03
Asteroid physical parameters (km, seconds, rotational period in hours):        
   GM= n.a.                RAD= 36.67              ROTPER= 10.936              
   H= 9.8                  G= .150                 B-V= n.a.                   
                           ALBEDO= .0433           STYP= n.a.                  
*******************************************************************************
            JDTDB,            Calendar Date (TDB),        delta-T,                      X,                      Y,                      Z,                     VX,                     VY,                     VZ,
******************************************************************************************************************************************************************************************************************
$$SOE
2473440.500000000, A.D. 2059-Dec-13 00:00:00.0000,      69.183358, -2.115959879958458E+00, -1.235579623029057E+00, -1.993579667314054E-01,  6.634690029537555E-03, -1.008565659411491E-02,  1.043691717228370E-04,
2473445.500000000, A.D. 2059-Dec-18 00:00:00.0000,      69.183491, -2.082258235687070E+00, -1.285694909536141E+00, -1.987860073338455E-01,  6.845541500366190E-03, -9.959535339017231E-03,  1.244181370063801E-04,
2473450.500000000, A.D. 2059-Dec-23 00:00:00.0000,      69.183627, -2.047508887205855E+00, -1.335165801755623E+00, -1.981137634805049E-01,  7.053739671525379E-03, -9.827909580600999E-03,  1.444802234636092E-04,
2473455.500000000, A.D. 2059-Dec-28 00:00:00.0000,      69.183767, -2.011725580240814E+00, -1.383964945059223E+00, -1.973412106978334E-01,  7.259093149248814E-03, -9.690847946257949E-03,  1.645389446907008E-04,
2473460.500000000, A.D. 2060-Jan-02 00:00:00.0000,      69.183911, -1.974923012601960E+00, -1.432065350002348E+00, -1.964684074142632E-01,  7.461412578821369E-03, -9.548427874027069E-03,  1.845776327839033E-04,
2473465.500000000, A.D. 2060-Jan-07 00:00:00.0000,      69.184056, -1.937116822710733E+00, -1.479440436226802E+00, -1.954954957692618E-01,  7.660511155515094E-03, -9.400735546398847E-03,  2.045794779448852E-04,
2473470.500000000, A.D. 2060-Jan-12 00:00:00.0000,      69.184199, -1.898323575575041E+00, -1.526064075942531E+00, -1.944227022211199E-01,  7.856205134123188E-03, -9.247865788092753E-03,  2.245275693488783E-04,
2473475.500000000, A.D. 2060-Jan-17 00:00:00.0000,      69.184339, -1.858560746226191E+00, -1.571910636807965E+00, -1.932503379476740E-01,  8.048314334179988E-03, -9.089921927724339E-03,  2.444049370645334E-04,
2473480.500000000, A.D. 2060-Jan-22 00:00:00.0000,      69.184476, -1.817846700646713E+00, -1.616955024028773E+00, -1.919787990352764E-01,  8.236662637882015E-03, -8.927015623558477E-03,  2.641945947966991E-04,
2473485.500000000, A.D. 2060-Jan-27 00:00:00.0000,      69.184610, -1.776200674233081E+00, -1.661172721496484E+00, -1.906085664524845E-01,  8.421078477710718E-03, -8.759266653802916E-03,  2.838795832169077E-04,
2473490.500000000, A.D. 2060-Feb-01 00:00:00.0000,      69.184742, -1.733642747852213E+00, -1.704539831791328E+00, -1.891402058061150E-01,  8.601395310817212E-03, -8.586802672130068E-03,  3.034430136484398E-04,
2473495.500000000, A.D. 2060-Feb-06 00:00:00.0000,      69.184867, -1.690193821564988E+00, -1.747033114877607E+00, -1.875743668784637E-01,  8.777452077385936E-03, -8.409758929347139E-03,  3.228681118748883E-04,
2473500.500000000, A.D. 2060-Feb-11 00:00:00.0000,      69.184985, -1.645875586103460E+00, -1.788630025325378E+00, -1.859117829457043E-01,  8.949093640357446E-03, -8.228277962516758E-03,  3.421382618126358E-04,
2473505.500000000, A.D. 2060-Feb-16 00:00:00.0000,      69.185094, -1.600710492201685E+00, -1.829308747900200E+00, -1.841532698789255E-01,  9.116171203779491E-03, -8.042509253405890E-03,  3.612370487270736E-04,
2473510.500000000, A.D. 2060-Feb-21 00:00:00.0000,      69.185194, -1.554721717894302E+00, -1.869048231372934E+00, -1.822997250308932E-01,  9.278542706881266E-03, -7.852608858422943E-03,  3.801483016792943E-04,
2473515.500000000, A.D. 2060-Feb-26 00:00:00.0000,      69.185286, -1.507933133910915E+00, -1.907828220411951E+00, -1.803521259129453E-01,  9.436073191305209E-03, -7.658739011928580E-03,  3.988561350026911E-04,
2473520.500000000, A.D. 2060-Mar-02 00:00:00.0000,      69.185370, -1.460369267305659E+00, -1.945629285429339E+00, -1.783115286672814E-01,  9.588635139499030E-03, -7.461067704879166E-03,  4.173449886366849E-04,
2473525.500000000, A.D. 2060-Mar-07 00:00:00.0000,      69.185444, -1.412055263470518E+00, -1.982432850263288E+00, -1.761790663408340E-01,  9.736108782548542E-03, -7.259768241066126E-03,  4.355996671264004E-04,
2473530.500000000, A.D. 2060-Mar-12 00:00:00.0000,      69.185505, -1.363016846689147E+00, -2.018221217590997E+00, -1.739559469679186E-01,  9.878382375907638E-03, -7.055018773527672E-03,  4.536053770748064E-04,
2473535.500000000, A.D. 2060-Mar-17 00:00:00.0000,      69.185554, -1.313280279395018E+00, -2.052977591979839E+00, -1.716434514699541E-01,  1.001535244174913E-02, -6.847001823930632E-03,  4.713477628250120E-04,
2473540.500000000, A.D. 2060-Mar-22 00:00:00.0000,      69.185591, -1.262872320303478E+00, -2.086686100499167E+00, -1.692429313816843E-01,  1.014692397688095E-02, -6.635903787970527E-03,  4.888129401373647E-04,
2473545.500000000, A.D. 2060-Mar-27 00:00:00.0000,      69.185617, -1.211820181592272E+00, -2.119331810830834E+00, -1.667558064144990E-01,  1.027301062530864E-02, -6.421914429991017E-03,  5.059875276393076E-04,
2473550.500000000, A.D. 2060-Apr-01 00:00:00.0000,      69.185633, -1.160151485309230E+00, -2.150900746832448E+00, -1.641835618684392E-01,  1.039353481469878E-02, -6.205226369974682E-03,  5.228586758782640E-04,
2473555.500000000, A.D. 2060-Apr-06 00:00:00.0000,      69.185636, -1.107894219188854E+00, -2.181379901522818E+00, -1.615277459051806E-01,  1.050842785632504E-02, -5.986034565919096E-03,  5.394140938628693E-04,
2473560.500000000, A.D. 2060-Apr-11 00:00:00.0000,      69.185626, -1.055076692060561E+00, -2.210757247473832E+00, -1.587899666947638E-01,  1.061763000848580E-02, -5.764535794516055E-03,  5.556420730091313E-04,
2473565.500000000, A.D. 2060-Apr-16 00:00:00.0000,      69.185603, -1.001727489030522E+00, -2.239021744607552E+00, -1.559718894492430E-01,  1.072109050373218E-02, -5.540928133049967E-03,  5.715315084147771E-04,
2473570.500000000, A.D. 2060-Apr-21 00:00:00.0000,      69.185569, -9.478754266166178E-01, -2.266163345411930E+00, -1.530752333567888E-01,  1.081876754051049E-02, -5.315410445425256E-03,  5.870719173930666E-04,
2473575.500000000, A.D. 2060-Apr-26 00:00:00.0000,      69.185524, -8.935495080125098E-01, -2.292172997602921E+00, -1.501017684300829E-01,  1.091062824002361E-02, -5.088181875164079E-03,  6.022534552167822E-04,
